PAKSAT-1R               
1 37779U 11042A   26177.95827145  .00000165  00000+0  00000+0 0  9995
2 37779   0.7142  84.5284 0003517 347.8453 225.6181  1.00272094 54571
SES-2                   
1 37809U 11049A   26177.93361595 -.00000184  00000+0  00000+0 0  9998
2 37809   0.0851  94.7096 0003102 358.5680  70.8733  1.00272264 54066
ARABSAT-5C              
1 37810U 11049B   26177.95471810  .00000135  00000+0  00000+0 0  9999
2 37810   0.0477   7.8318 0003326 105.3484 165.5914  1.00269588 54138
EUTELSAT 7 WEST A       
1 37816U 11051A   26177.94939017 -.00000049  00000+0  00000+0 0  9990
2 37816   0.0595 355.0684 0004671 111.2713 143.1999  1.00271256 53975
QUETZSAT 1              
1 37826U 11054A   26177.93552263 -.00000230  00000+0  00000+0 0  9999
2 37826   0.0138 328.7062 0002967 128.9224  77.2192  1.00272463 49972
INTELSAT 18 (IS-18)     
1 37834U 11056A   26177.84558705  .00000065  00000+0  00000+0 0  9992
2 37834   0.0132 303.1799 0002080 156.8438 299.3459  1.00273146 53902
EUTELSAT 16A            
1 37836U 11057A   26177.81136355  .00000115  00000+0  00000+0 0  9991
2 37836   0.0403   8.8788 0005591  87.1966 126.9334  1.00272218  7437
VIASAT-1                
1 37843U 11059A   26177.80479608 -.00000012  00000+0  00000+0 0  9998
2 37843   0.0011  22.9176 0002504  72.0926 354.5333  1.00272473 47422
ASIASAT 7               
1 37933U 11069A   26177.82909375 -.00000323  00000+0  00000+0 0  9995
2 37933   0.0355 279.9285 0001763 146.0577 252.9230  1.00275260 44957
BEIDOU-2 IGSO-5         
1 37948U 11073A   26175.65702808 -.00000196  00000+0  00000+0 0  9995
2 37948  47.6633 271.4526 0114223 222.0346 107.5350  1.00272136 53204
LUCH-5A                 
1 37951U 11074B   26177.79166108 -.00000047  00000+0  00000+0 0  9999
2 37951   8.7778  73.6684 0002705  31.4807 261.6864  1.00272377 53140
NIGCOMSAT 1R            
1 38014U 11077A   26177.95922478  .00000157  00000+0  00000+0 0  9992
2 38014   0.0455 232.5669 0003007 126.4127 303.9176  1.00269034 53055
WGS F4 (USA 233)        
1 38070U 12003A   26177.82571374  .00000000  00000+0  00000+0 0  9992
2 38070   0.0257  18.3060 0001682 111.7244 170.5931  1.00264984 44243
SES-4                   
1 38087U 12007A   26177.30484314 -.00000157  00000+0  00000+0 0  9998
2 38087   0.0233  37.7023 0002535  56.9582 267.5225  1.00273553 52314
BEIDOU-2 G5             
1 38091U 12008A   26177.74855803  .00000064  00000+0  00000+0 0  9993
2 38091   3.5980  69.6465 0008668 276.0371 257.3928  1.00275757 52465
MUOS-1                  
1 38093U 12009A   26177.64583444 -.00000121  00000+0  00000+0 0  9999
2 38093   5.4947  47.1445 0057772   2.3740 357.7600  1.00272992 52538
INTELSAT 22 (IS-22)     
1 38098U 12011A   26177.89381947  .00000000  00000+0  00000+0 0  9993
2 38098   0.0378  55.2192 0001788  73.8970 179.7788  1.00270708  7289
APSTAR-7                
1 38107U 12013A   26177.89468613 -.00000090  00000+0  00000+0 0  9992
2 38107   0.0146  25.5207 0003179  76.8256 211.2584  1.00272134 51905
YAHSAT 1B               
1 38245U 12016A   26177.87128332  .00000139  00000+0  00000+0 0  9990
2 38245   0.0941  89.2406 0003733  38.7698 148.2208  1.00262456 45701
AEHF-2 (USA 235)        
1 38254U 12019A   26177.44850265 -.00000130  00000+0  00000+0 0  9995
2 38254   6.6711  57.4236 0002121  38.1163 323.9315  1.00273582  7089
JCSAT-13                
1 38331U 12023A   26177.90404618 -.00000345  00000+0  00000+0 0  9992
2 38331   0.0176  53.8709 0002840  49.7545 260.8493  1.00270069 51636
VINASAT-2               
1 38332U 12023B   26177.90560619 -.00000317  00000+0  00000+0 0  9996
2 38332   0.0134 349.7391 0002544 108.1593 274.9841  1.00273468 46755
NIMIQ 6                 
1 38342U 12026A   26177.93266262 -.00000162  00000+0  00000+0 0  9998
2 38342   0.0122  37.0105 0002997  54.8441  67.8463  1.00271620 50510
ZHONGXING-2A            
1 38352U 12028A   26177.82762042 -.00000283  00000+0  00000+0 0  9990
2 38352   1.4798  83.7757 0001859  13.3936 213.9346  1.00274061 51394
INTELSAT 19 (IS-19)     
1 38356U 12030A   26177.86919993 -.00000045  00000+0  00000+0 0  9996
2 38356   0.0171  18.5595 0003343  82.9517 292.3917  1.00271310 50546
ECHOSTAR 17             
1 38551U 12035A   26177.92962927 -.00000064  00000+0  00000+0 0  9991
2 38551   0.0186  18.3075 0002112  74.3522  49.9496  1.00271375 51162
METEOSAT-10 (MSG-3)     
1 38552U 12035B   26177.30926316  .00000000  00000+0  00000+0 0  9995
2 38552   4.6930  60.9813 0001742   8.4001 316.5762  1.00268518 50940
SES-5                   
1 38652U 12036A   26177.80919689  .00000044  00000+0  00000+0 0  9995
2 38652   0.0452 318.1712 0002498 148.3859 104.6501  1.00264246 44551
INTELSAT 20 (IS-20)     
1 38740U 12043A   26177.53651163  .00000000  00000+0  00000+0 0  9993
2 38740   0.0380  69.0281 0002197 114.0266 353.2462  1.00270498 50843
HYLAS 2                 
1 38741U 12043B   26177.93638929 -.00000248  00000+0  00000+0 0  9998
2 38741   2.4522  80.9602 0002756  31.4639  67.1566  1.00272228 50876
INTELSAT 21 (IS-21)     
1 38749U 12045A   26177.96351833 -.00000273  00000+0  00000+0 0  9995
2 38749   0.0255  69.7199 0001839  38.0742  96.1537  1.00271681 50621
ASTRA 2F                
1 38778U 12051A   26177.95636477  .00000161  00000+0  00000+0 0  9998
2 38778   0.0831 257.6753 0002082 271.3686 118.5292  1.00267811 41231
