OBJECT_NAME,OBJECT_ID,EPOCH,MEAN_MOTION,ECCENTRICITY,INCLINATION,RA_OF_ASC_NODE,ARG_OF_PERICENTER,MEAN_ANOMALY,EPHEMERIS_TYPE,CLASSIFICATION_TYPE,NORAD_CAT_ID,ELEMENT_SET_NO,REV_AT_EPOCH,BSTAR,MEAN_MOTION_DOT,MEAN_MOTION_DDOT
PAKSAT-1R,2011-042A,2026-06-26T22:59:54.653280,1.00272094,.00035174,0.7142,84.5284,347.8453,225.6181,0,U,37779,999,5457,0,.165E-5,0
SES-2,2011-049A,2026-06-26T22:24:24.418080,1.00272264,.00031023,0.0851,94.7096,358.5680,70.8733,0,U,37809,999,5406,0,-.184E-5,0
ARABSAT-5C,2011-049B,2026-06-26T22:54:47.643840,1.00269588,.00033262,0.0477,7.8318,105.3484,165.5914,0,U,37810,999,5413,0,.135E-5,0
EUTELSAT 7 WEST A,2011-051A,2026-06-26T22:47:07.310688,1.00271256,.00046718,0.0595,355.0684,111.2713,143.1999,0,U,37816,999,5397,0,-.49E-6,0
QUETZSAT 1,2011-054A,2026-06-26T22:27:09.155232,1.00272463,.00029678,0.0138,328.7062,128.9224,77.2192,0,U,37826,999,4997,0,-.23E-5,0
INTELSAT 18 (IS-18),2011-056A,2026-06-26T20:17:38.721120,1.00273146,.000208,0.0132,303.1799,156.8438,299.3459,0,U,37834,999,5390,0,.65E-6,0
EUTELSAT 16A,2011-057A,2026-06-26T19:28:21.810720,1.00272218,.00055912,0.0403,8.8788,87.1966,126.9334,0,U,37836,999,743,0,.115E-5,0
VIASAT-1,2011-059A,2026-06-26T19:18:54.381312,1.00272473,.00025043,0.0011,22.9176,72.0926,354.5333,0,U,37843,999,4742,0,-.12E-6,0
ASIASAT 7,2011-069A,2026-06-26T19:53:53.700000,1.00275260,.00017633,0.0355,279.9285,146.0577,252.9230,0,U,37933,999,4495,0,-.323E-5,0
BEIDOU-2 IGSO-5,2011-073A,2026-06-24T15:46:07.226112,1.00272136,.01142233,47.6633,271.4526,222.0346,107.5350,0,U,37948,999,5320,0,-.196E-5,0
LUCH-5A,2011-074B,2026-06-26T18:59:59.517312,1.00272377,.00027052,8.7778,73.6684,31.4807,261.6864,0,U,37951,999,5314,0,-.47E-6,0
NIGCOMSAT 1R,2011-077A,2026-06-26T23:01:17.020992,1.00269034,.00030079,0.0455,232.5669,126.4127,303.9176,0,U,38014,999,5305,0,.157E-5,0
WGS F4 (USA 233),2012-003A,2026-06-26T19:49:01.667136,1.00264984,.00016822,0.0257,18.3060,111.7244,170.5931,0,U,38070,999,4424,0,0,0
SES-4,2012-007A,2026-06-26T07:18:58.447296,1.00273553,.0002535,0.0233,37.7023,56.9582,267.5225,0,U,38087,999,5231,0,-.157E-5,0
BEIDOU-2 G5,2012-008A,2026-06-26T17:57:55.413792,1.00275757,.0008668,3.5980,69.6465,276.0371,257.3928,0,U,38091,999,5246,0,.64E-6,0
MUOS-1,2012-009A,2026-06-26T15:30:00.095616,1.00272992,.00577723,5.4947,47.1445,2.3740,357.7600,0,U,38093,999,5253,0,-.121E-5,0
INTELSAT 22 (IS-22),2012-011A,2026-06-26T21:27:06.002208,1.00270708,.00017882,0.0378,55.2192,73.8970,179.7788,0,U,38098,999,728,0,0,0
APSTAR-7,2012-013A,2026-06-26T21:28:20.881632,1.00272134,.0003179,0.0146,25.5207,76.8256,211.2584,0,U,38107,999,5190,0,-.9E-6,0
YAHSAT 1B,2012-016A,2026-06-26T20:54:38.878848,1.00262456,.0003733,0.0941,89.2406,38.7698,148.2208,0,U,38245,999,4570,0,.139E-5,0
AEHF-2 (USA 235),2012-019A,2026-06-26T10:45:50.628960,1.00273582,.0002121,6.6711,57.4236,38.1163,323.9315,0,U,38254,999,708,0,-.13E-5,0
JCSAT-13,2012-023A,2026-06-26T21:41:49.589952,1.00270069,.00028402,0.0176,53.8709,49.7545,260.8493,0,U,38331,999,5163,0,-.345E-5,0
VINASAT-2,2012-023B,2026-06-26T21:44:04.374816,1.00273468,.0002544,0.0134,349.7391,108.1593,274.9841,0,U,38332,999,4675,0,-.317E-5,0
NIMIQ 6,2012-026A,2026-06-26T22:23:02.050368,1.00271620,.00029973,0.0122,37.0105,54.8441,67.8463,0,U,38342,999,5051,0,-.162E-5,0
ZHONGXING-2A,2012-028A,2026-06-26T19:51:46.404288,1.00274061,.00018592,1.4798,83.7757,13.3936,213.9346,0,U,38352,999,5139,0,-.283E-5,0
INTELSAT 19 (IS-19),2012-030A,2026-06-26T20:51:38.873952,1.00271310,.0003343,0.0171,18.5595,82.9517,292.3917,0,U,38356,999,5054,0,-.45E-6,0
ECHOSTAR 17,2012-035A,2026-06-26T22:18:39.968928,1.00271375,.00021125,0.0186,18.3075,74.3522,49.9496,0,U,38551,999,5116,0,-.64E-6,0
METEOSAT-10 (MSG-3),2012-035B,2026-06-26T07:25:20.337024,1.00268518,.0001742,4.6930,60.9813,8.4001,316.5762,0,U,38552,999,5094,0,0,0
SES-5,2012-036A,2026-06-26T19:25:14.611296,1.00264246,.00024985,0.0452,318.1712,148.3859,104.6501,0,U,38652,999,4455,0,.44E-6,0
INTELSAT 20 (IS-20),2012-043A,2026-06-26T12:52:34.604832,1.00270498,.0002197,0.0380,69.0281,114.0266,353.2462,0,U,38740,999,5084,0,0,0
HYLAS 2,2012-043B,2026-06-26T22:28:24.034656,1.00272228,.00027564,2.4522,80.9602,31.4639,67.1566,0,U,38741,999,5087,0,-.248E-5,0
INTELSAT 21 (IS-21),2012-045A,2026-06-26T23:07:27.983712,1.00271681,.00018395,0.0255,69.7199,38.0742,96.1537,0,U,38749,999,5062,0,-.273E-5,0
ASTRA 2F,2012-051A,2026-06-26T22:57:09.916128,1.00267811,.00020824,0.0831,257.6753,271.3686,118.5292,0,U,38778,999,4123,0,.161E-5,0
